CCSDS_OMM_VERS = 2.0
CREATION_DATE  = 
ORIGINATOR     = 

OBJECT_NAME    = AQUA
OBJECT_ID      = 2002-022A
CENTER_NAME    = EARTH
REF_FRAME      = TEME
TIME_SYSTEM    = UTC
MEAN_ELEMENT_THEORY = SGP/SGP4

EPOCH          = 2026-03-28T14:05:14.237376
MEAN_MOTION    = 14.62019053
ECCENTRICITY   = .00011253
INCLINATION    = 98.4205
RA_OF_ASC_NODE = 55.3007
ARG_OF_PERICENTER = 117.9874
MEAN_ANOMALY   = 11.4525

EPHEMERIS_TYPE = 0
CLASSIFICATION_TYPE = U
NORAD_CAT_ID   = 27424
ELEMENT_SET_NO = 999
REV_AT_EPOCH   = 27149
BSTAR          = .21489412E-3
MEAN_MOTION_DOT = .1029E-4
MEAN_MOTION_DDOT = 0

CCSDS_OMM_VERS = 2.0
CREATION_DATE  = 
ORIGINATOR     = 

OBJECT_NAME    = CZ-4B R/B
OBJECT_ID      = 2002-024C
CENTER_NAME    = EARTH
REF_FRAME      = TEME
TIME_SYSTEM    = UTC
MEAN_ELEMENT_THEORY = SGP/SGP4

EPOCH          = 2026-03-28T14:46:11.036064
MEAN_MOTION    = 14.14550972
ECCENTRICITY   = .00495225
INCLINATION    = 98.8799
RA_OF_ASC_NODE = 140.9234
ARG_OF_PERICENTER = 330.3180
MEAN_ANOMALY   = 144.8460

EPHEMERIS_TYPE = 0
CLASSIFICATION_TYPE = U
NORAD_CAT_ID   = 27432
ELEMENT_SET_NO = 999
REV_AT_EPOCH   = 23191
BSTAR          = .4253638E-4
MEAN_MOTION_DOT = .38E-6
MEAN_MOTION_DDOT = 0

CCSDS_OMM_VERS = 2.0
CREATION_DATE  = 
ORIGINATOR     = 

OBJECT_NAME    = MIDORI II (ADEOS-II)
OBJECT_ID      = 2002-056A
CENTER_NAME    = EARTH
REF_FRAME      = TEME
TIME_SYSTEM    = UTC
MEAN_ELEMENT_THEORY = SGP/SGP4

EPOCH          = 2026-03-28T11:52:37.744320
MEAN_MOTION    = 14.29298936
ECCENTRICITY   = .00007586
INCLINATION    = 98.7800
RA_OF_ASC_NODE = 46.1062
ARG_OF_PERICENTER = 19.4363
MEAN_ANOMALY   = 340.6847

EPHEMERIS_TYPE = 0
CLASSIFICATION_TYPE = U
NORAD_CAT_ID   = 27597
ELEMENT_SET_NO = 999
REV_AT_EPOCH   = 21298
BSTAR          = .14563663E-3
MEAN_MOTION_DOT = .325E-5
MEAN_MOTION_DDOT = 0

CCSDS_OMM_VERS = 2.0
CREATION_DATE  = 
ORIGINATOR     = 

OBJECT_NAME    = H-2A R/B
OBJECT_ID      = 2002-056E
CENTER_NAME    = EARTH
REF_FRAME      = TEME
TIME_SYSTEM    = UTC
MEAN_ELEMENT_THEORY = SGP/SGP4

EPOCH          = 2026-03-28T15:23:03.740064
MEAN_MOTION    = 14.33773063
ECCENTRICITY   = .00713571
INCLINATION    = 98.3234
RA_OF_ASC_NODE = 47.2888
ARG_OF_PERICENTER = 104.8398
MEAN_ANOMALY   = 67.2412

EPHEMERIS_TYPE = 0
CLASSIFICATION_TYPE = U
NORAD_CAT_ID   = 27601
ELEMENT_SET_NO = 999
REV_AT_EPOCH   = 21682
BSTAR          = .1218922E-3
MEAN_MOTION_DOT = .307E-5
MEAN_MOTION_DDOT = 0

CCSDS_OMM_VERS = 2.0
CREATION_DATE  = 
ORIGINATOR     = 

OBJECT_NAME    = CZ-4B R/B
OBJECT_ID      = 2003-049C
CENTER_NAME    = EARTH
REF_FRAME      = TEME
TIME_SYSTEM    = UTC
MEAN_ELEMENT_THEORY = SGP/SGP4

EPOCH          = 2026-03-28T13:40:19.492320
MEAN_MOTION    = 14.55036759
ECCENTRICITY   = .00482633
INCLINATION    = 98.6892
RA_OF_ASC_NODE = 83.2177
ARG_OF_PERICENTER = 172.7332
MEAN_ANOMALY   = 187.4574

EPHEMERIS_TYPE = 0
CLASSIFICATION_TYPE = U
NORAD_CAT_ID   = 28059
ELEMENT_SET_NO = 999
REV_AT_EPOCH   = 18934
BSTAR          = .97370132E-4
MEAN_MOTION_DOT = .375E-5
MEAN_MOTION_DDOT = 0

CCSDS_OMM_VERS = 2.0
CREATION_DATE  = 
ORIGINATOR     = 

OBJECT_NAME    = CZ-2C R/B
OBJECT_ID      = 2004-012C
CENTER_NAME    = EARTH
REF_FRAME      = TEME
TIME_SYSTEM    = UTC
MEAN_ELEMENT_THEORY = SGP/SGP4

EPOCH          = 2026-03-28T03:27:59.050080
MEAN_MOTION    = 15.66741264
ECCENTRICITY   = .00132932
INCLINATION    = 97.7185
RA_OF_ASC_NODE = 154.2126
ARG_OF_PERICENTER = 235.4780
MEAN_ANOMALY   = 124.5225

EPHEMERIS_TYPE = 0
CLASSIFICATION_TYPE = U
NORAD_CAT_ID   = 28222
ELEMENT_SET_NO = 999
REV_AT_EPOCH   = 20716
BSTAR          = .60221314E-3
MEAN_MOTION_DOT = .6383E-3
MEAN_MOTION_DDOT = 0

CCSDS_OMM_VERS = 2.0
CREATION_DATE  = 
ORIGINATOR     = 

OBJECT_NAME    = SL-16 R/B
OBJECT_ID      = 2004-021B
CENTER_NAME    = EARTH
REF_FRAME      = TEME
TIME_SYSTEM    = UTC
MEAN_ELEMENT_THEORY = SGP/SGP4

EPOCH          = 2026-03-28T13:11:11.558112
MEAN_MOTION    = 14.14594754
ECCENTRICITY   = .00049555
INCLINATION    = 71.0008
RA_OF_ASC_NODE = 192.9144
ARG_OF_PERICENTER = 346.6717
MEAN_ANOMALY   = 13.4274

EPHEMERIS_TYPE = 0
CLASSIFICATION_TYPE = U
NORAD_CAT_ID   = 28353
ELEMENT_SET_NO = 999
REV_AT_EPOCH   = 12550
BSTAR          = .11854155E-3
MEAN_MOTION_DOT = .18E-5
MEAN_MOTION_DDOT = 0

CCSDS_OMM_VERS = 2.0
CREATION_DATE  = 
ORIGINATOR     = 

OBJECT_NAME    = CZ-4B R/B
OBJECT_ID      = 2004-035C
CENTER_NAME    = EARTH
REF_FRAME      = TEME
TIME_SYSTEM    = UTC
MEAN_ELEMENT_THEORY = SGP/SGP4

EPOCH          = 2026-03-28T13:23:37.800960
MEAN_MOTION    = 15.29385346
ECCENTRICITY   = .00300102
INCLINATION    = 97.3474
RA_OF_ASC_NODE = 121.5757
ARG_OF_PERICENTER = 260.9201
MEAN_ANOMALY   = 98.8644

EPHEMERIS_TYPE = 0
CLASSIFICATION_TYPE = U
NORAD_CAT_ID   = 28415
ELEMENT_SET_NO = 999
REV_AT_EPOCH   = 18279
BSTAR          = .31888522E-3
MEAN_MOTION_DOT = .9135E-4
MEAN_MOTION_DDOT = 0

CCSDS_OMM_VERS = 2.0
CREATION_DATE  = 
ORIGINATOR     = 

OBJECT_NAME    = CZ-2C R/B
OBJECT_ID      = 2004-046B
CENTER_NAME    = EARTH
REF_FRAME      = TEME
TIME_SYSTEM    = UTC
MEAN_ELEMENT_THEORY = SGP/SGP4

EPOCH          = 2026-03-28T08:20:15.909504
MEAN_MOTION    = 14.26998585
ECCENTRICITY   = .01405934
INCLINATION    = 98.1977
RA_OF_ASC_NODE = 1.1690
ARG_OF_PERICENTER = 99.6174
MEAN_ANOMALY   = 262.0924

EPHEMERIS_TYPE = 0
CLASSIFICATION_TYPE = U
NORAD_CAT_ID   = 28480
ELEMENT_SET_NO = 999
REV_AT_EPOCH   = 11116
BSTAR          = .65830249E-4
MEAN_MOTION_DOT = .138E-5
MEAN_MOTION_DDOT = 0

CCSDS_OMM_VERS = 2.0
CREATION_DATE  = 
ORIGINATOR     = 

OBJECT_NAME    = ARIANE 5 R/B
OBJECT_ID      = 2004-049H
CENTER_NAME    = EARTH
REF_FRAME      = TEME
TIME_SYSTEM    = UTC
MEAN_ELEMENT_THEORY = SGP/SGP4

EPOCH          = 2026-03-28T10:16:37.953120
MEAN_MOTION    = 14.85299028
ECCENTRICITY   = .00829315
INCLINATION    = 98.2656
RA_OF_ASC_NODE = 256.5905
ARG_OF_PERICENTER = 290.6503
MEAN_ANOMALY   = 68.5833

EPHEMERIS_TYPE = 0
CLASSIFICATION_TYPE = U
NORAD_CAT_ID   = 28499
ELEMENT_SET_NO = 999
REV_AT_EPOCH   = 14857
BSTAR          = .10456001E-3
MEAN_MOTION_DOT = .889E-5
MEAN_MOTION_DDOT = 0

CCSDS_OMM_VERS = 2.0
CREATION_DATE  = 
ORIGINATOR     = 

OBJECT_NAME    = CZ-2D R/B
OBJECT_ID      = 2005-024B
CENTER_NAME    = EARTH
REF_FRAME      = TEME
TIME_SYSTEM    = UTC
MEAN_ELEMENT_THEORY = SGP/SGP4

EPOCH          = 2026-03-28T11:48:18.299808
MEAN_MOTION    = 15.61848764
ECCENTRICITY   = .00024376
INCLINATION    = 97.3581
RA_OF_ASC_NODE = 103.3508
ARG_OF_PERICENTER = 340.8411
MEAN_ANOMALY   = 19.2754

EPHEMERIS_TYPE = 0
CLASSIFICATION_TYPE = U
NORAD_CAT_ID   = 28738
ELEMENT_SET_NO = 999
REV_AT_EPOCH   = 14271
BSTAR          = .57362101E-3
MEAN_MOTION_DOT = .4984E-3
MEAN_MOTION_DDOT = 0

CCSDS_OMM_VERS = 2.0
CREATION_DATE  = 
ORIGINATOR     = 

OBJECT_NAME    = ALOS (DAICHI)
OBJECT_ID      = 2006-002A
CENTER_NAME    = EARTH
REF_FRAME      = TEME
TIME_SYSTEM    = UTC
MEAN_ELEMENT_THEORY = SGP/SGP4

EPOCH          = 2026-03-28T10:16:12.730368
MEAN_MOTION    = 14.69865987
ECCENTRICITY   = .00008638
INCLINATION    = 98.1247
RA_OF_ASC_NODE = 43.2937
ARG_OF_PERICENTER = 106.4422
MEAN_ANOMALY   = 253.6879

EPHEMERIS_TYPE = 0
CLASSIFICATION_TYPE = U
NORAD_CAT_ID   = 28931
ELEMENT_SET_NO = 999
REV_AT_EPOCH   = 7623
BSTAR          = .24883495E-3
MEAN_MOTION_DOT = .1438E-4
MEAN_MOTION_DDOT = 0

